FALCONSAT-6             
1 43815U 18099BK  26068.72544389  .00005029  00000+0  19477-3 0  9998
2 43815  97.3865 145.8165 0014370 297.0944 181.0714 15.26532865398556
STARLINK-31870          
1 59787U 24093F   26068.45271618  .00003967  00000+0  15361-3 0  9993
2 59787  43.0031 209.8538 0002303 284.0443  76.0153 15.27576119102668
